{"type":"FeatureCollection","features":[{"type":"Feature","properties":{},"geometry":{"type":"LineString","coordinates":[[-65.418511,18.105553],[-65.418493,18.105479],[-65.418518,18.105397],[-65.418668,18.105329],[-65.41891,18.105329],[-65.419181,18.105193],[-65.419517,18.104895],[-65.419652,18.104678],[-65.419709,18.104578],[-65.419881,18.10445],[-65.419792,18.104207],[-65.419588,18.104047],[-65.419164,18.103964],[-65.41896,18.103966],[-65.418468,18.103776],[-65.418349,18.103621],[-65.418261,18.103464],[-65.418092,18.103337],[-65.417966,18.10333],[-65.417903,18.103318],[-65.41786,18.103272],[-65.417721,18.103132],[-65.417726,18.103028],[-65.417755,18.102936],[-65.417876,18.102799],[-65.41788,18.102702],[-65.417827,18.102618],[-65.417674,18.10255],[-65.417433,18.102555],[-65.417284,18.102643]]}}]}